ONEWEB-0410             
1 51622U 22012A   24016.91543736  .00000062  00000+0  12542-3 0  9998
2 51622  87.9212 181.2875 0000238  72.0212 288.0946 13.17651413 97517
ONEWEB-0411             
1 51623U 22012B   24016.93134175 -.00000073  00000+0 -24526-3 0  9993
2 51623  87.8896 211.4921 0001614  78.2604 281.8705 13.10371403 93741
ONEWEB-0415             
1 51624U 22012C   24016.92809538 -.00000109  00000+0 -34846-3 0  9991
2 51624  87.8895 211.5224 0001579  75.7671 284.3631 13.10370255 93744
ONEWEB-0416             
1 51625U 22012D   24016.55767040 -.00000484  00000+0 -14228-2 0  9999
2 51625  87.8898 211.5816 0001395  91.8895 268.2392 13.10369335 93739
ONEWEB-0422             
1 51626U 22012E   24016.92493955 -.00000018  00000+0 -78622-4 0  9995
2 51626  87.9213 181.2821 0002110 110.4529 249.6829 13.17649208 97626
ONEWEB-0423             
1 51627U 22012F   24016.91861213  .00000078  00000+0  16836-3 0  9993
2 51627  87.9215 181.2822 0001429  98.7009 261.4284 13.17648943 97513
ONEWEB-0425             
1 51628U 22012G   24016.56741353 -.00000676  00000+0 -19717-2 0  9993
2 51628  87.8897 211.5683 0001111 105.9081 254.2168 13.10374905 93738
ONEWEB-0428             
1 51629U 22012H   24016.92972088  .00000352  00000+0  97130-3 0  9990
2 51629  87.8894 211.5095 0001790  91.6436 268.4896 13.10371265 93743
